{{Infobox Planet  
| name = 623 Chimaera
| image = 
| caption = 
| discovery=yes | physical_characteristics = yes | bgcolour=#FFFFC0
| discovery_ref = 
| discoverer = [[K·洛纳特|K·洛纳特]]
| discovery_site = [[海德堡|海德堡]]（[[天文台编号列表|024]]）
| discovered =  1907年1月22日
| mp_name = 623
| alt_names = 1907 XJ
| named_after = [[喀迈拉山|喀迈拉山]] 
| mp_category=[[小行星带|主带小行星]]
| orbit_ref = <ref>[http://ssd.jpl.nasa.gov/sbdb.cgi?sstr=623 623 Chimaera (1907 XJ)]</ref>
| epoch = 2011年8月27日
| semimajor= 2.461531033337692AU
| perihelion=2.185230295058524AU
| aphelion= 2.73783177161686[[天文单位|AU]]
| eccentricity =0.1122475136559707				
| period =1410.608186733075[[日|地球日]]<br>3.86[[年|地球年]] 
| inclination=14.12763160135077[[角度|°]]
| asc_node=308.3763125591631°
| arg_peri=124.3482989303047°
| mean_anomaly=86.86100807242236°
| avg_speed=
 | dimensions=44.09千米
 | mass=
 | density=
 | surface_grav=
 | escape_velocity=
 | rotation=14.635小时
 | spectral_type=[[X-型小行星|XC]]
 | magnitude=
 | abs_magnitude=10.97
 | albedo=0.0372	
 | single_temperature=
}}
'''小行星623'''（'''623 Chimaera'''），是由[[德国|德国]][[天文学家|天文学家]][[K·洛纳特|K·洛纳特]]于1907年1月22日在德国[[海德堡|海德堡]]发现的[[小行星带|主带]][[小行星|小行星]]。

小行星623以希腊[[喀迈拉山|喀迈拉山]]（名字来源自[[希腊神话|希腊神话]]的怪兽[[喀迈拉|喀迈拉]]）命名。

== 参考资料 ==
{{Reflist}}

{{Minor Planet Number|(622)[[小行星622|小行星622]]|(624)[[小行星624|小行星624]]}}

[[Category:小行星带天体|Category:小行星带天体]]
[[Category:1907年发现的小行星|Category:1907年发现的小行星]]
[[Category:X-型小行星|Category:X-型小行星]]